start=new Date('2022-07-15T00:00:00.000Z').valueOf();
sats=[{"OBJECT_ID":"2022-005AD","EPOCH":"2022-07-14T15:55:30.718272","CENTER_NAME":"EARTH","TLE_LINE1":"1 51131U 22005AD  22195.66354998  .00001064  00000-0  84951-4 0  9991","EPHEMERIS_TYPE":"0","OBJECT_TYPE":"PAYLOAD","REF_FRAME":"TEME","CLASSIFICATION_TYPE":"U","TLE_LINE2":"2 51131  53.2167 167.8118 0002558  54.2035 305.9195 15.08841334 27332","ELEMENT_SET_NO":"999","MEAN_MOTION":"15.08841334","REV_AT_EPOCH":"2733","APOAPSIS":"541.511","SEMIMAJOR_AXIS":"6917.876","MEAN_MOTION_DOT":"0.00001064","OBJECT_NAME":"STARLINK-3388","PERIAPSIS":"537.972","INCLINATION":"53.2167","RCS_SIZE":"LARGE","COUNTRY_CODE":"US","GP_ID":"208135445","MEAN_MOTION_DDOT":"0.0000000000000","PERIOD":"95.437","SITE":"AFETR","NORAD_CAT_ID":"51131","MEAN_ELEMENT_THEORY":"SGP4","ARG_OF_PERICENTER":"54.2035","FILE":"3513976","DECAY_DATE":null,"MEAN_ANOMALY":"305.9195","BSTAR":"0.00008495100000","TIME_SYSTEM":"UTC","LAUNCH_DATE":"2022-01-19","RA_OF_ASC_NODE":"167.8118","ECCENTRICITY":"0.00025580"},{"TLE_LINE1":"1 51132U 22005AE  22195.33603409 -.00001284  00000-0 -62579-4 0  9998","EPHEMERIS_TYPE":"0","CENTER_NAME":"EARTH","OBJECT_TYPE":"PAYLOAD","REF_FRAME":"TEME","OBJECT_ID":"2022-005AE","EPOCH":"2022-07-14T08:03:53.345376","APOAPSIS":"541.130","TLE_LINE2":"2 51132  53.2168 169.2773 0001997  52.0576 308.0596 15.08839043 27286","CLASSIFICATION_TYPE":"U","MEAN_MOTION":"15.08839043","ELEMENT_SET_NO":"999","REV_AT_EPOCH":"2728","MEAN_MOTION_DOT":"-0.00001284","OBJECT_NAME":"STARLINK-3393","PERIAPSIS":"538.367","INCLINATION":"53.2168","SEMIMAJOR_AXIS":"6917.883","MEAN_MOTION_DDOT":"0.0000000000000","COUNTRY_CODE":"US","RCS_SIZE":"LARGE","GP_ID":"208106472","FILE":"3513725","ARG_OF_PERICENTER":"52.0576","PERIOD":"95.438","MEAN_ELEMENT_THEORY":"SGP4","SITE":"AFETR","NORAD_CAT_ID":"51132","MEAN_ANOMALY":"308.0596","DECAY_DATE":null,"TIME_SYSTEM":"UTC","LAUNCH_DATE":"2022-01-19","BSTAR":"-0.00006257900000","RA_OF_ASC_NODE":"169.2773","ECCENTRICITY":"0.00019970"},{"SEMIMAJOR_AXIS":"6917.900","OBJECT_NAME":"STARLINK-3356","PERIAPSIS":"538.213","INCLINATION":"53.2150","MEAN_MOTION_DOT":"-0.00001806","GP_ID":"208136446","COUNTRY_CODE":"US","RCS_SIZE":"LARGE","MEAN_MOTION_DDOT":"0.0000000000000","EPOCH":"2022-07-14T15:44:55.157280","OBJECT_ID":"2022-005AF","REF_FRAME":"TEME","CENTER_NAME":"EARTH","TLE_LINE1":"1 51133U 22005AF  22195.65619395 -.00001806  00000-0 -95413-4 0  9998","EPHEMERIS_TYPE":"0","OBJECT_TYPE":"PAYLOAD","REV_AT_EPOCH":"2733","TLE_LINE2":"2 51133  53.2150 167.8391 0002243  48.2380 311.8803 15.08833539 27336","CLASSIFICATION_TYPE":"U","ELEMENT_SET_NO":"999","MEAN_MOTION":"15.08833539","APOAPSIS":"541.317","BSTAR":"-0.00009541300000","LAUNCH_DATE":"2022-01-19","TIME_SYSTEM":"UTC","ECCENTRICITY":"0.00022430","RA_OF_ASC_NODE":"167.8391","PERIOD":"95.438","NORAD_CAT_ID":"51133","SITE":"AFETR","MEAN_ELEMENT_THEORY":"SGP4","ARG_OF_PERICENTER":"48.2380","FILE":"3513976","DECAY_DATE":null,"MEAN_ANOMALY":"311.8803"},{"GP_ID":"208137193","COUNTRY_CODE":"US","RCS_SIZE":"LARGE","MEAN_MOTION_DDOT":"0.0000000000000","SEMIMAJOR_AXIS":"6917.918","OBJECT_NAME":"STARLINK-3183","PERIAPSIS":"537.766","INCLINATION":"53.2172","MEAN_MOTION_DOT":"-0.00001548","REV_AT_EPOCH":"2748","CLASSIFICATION_TYPE":"U","TLE_LINE2":"2 51134  53.2172 157.9536 0002916  49.7956 310.3291 15.08827649 27480","ELEMENT_SET_NO":"999","MEAN_MOTION":"15.08827649","APOAPSIS":"541.800","EPOCH":"2022-07-14T14:59:56.025600","OBJECT_ID":"2022-005AG","REF_FRAME":"TEME","TLE_LINE1":"1 51134U 22005AG  22195.62495400 -.00001548  00000-0 -79147-4 0  9994","EPHEMERIS_TYPE":"0","CENTER_NAME":"EARTH","OBJECT_TYPE":"PAYLOAD","ECCENTRICITY":"0.00029160","RA_OF_ASC_NODE":"157.9536","BSTAR":"-0.00007914700000","LAUNCH_DATE":"2022-01-19","TIME_SYSTEM":"UTC","DECAY_DATE":null,"MEAN_ANOMALY":"310.3291","PERIOD":"95.438","NORAD_CAT_ID":"51134","SITE":"AFETR","MEAN_ELEMENT_THEORY":"SGP4","FILE":"3513976","ARG_OF_PERICENTER":"49.7956"},{"MEAN_ANOMALY":"304.4926","DECAY_DATE":null,"FILE":"3513976","ARG_OF_PERICENTER":"55.6281","PERIOD":"95.438","SITE":"AFETR","MEAN_ELEMENT_THEORY":"SGP4","NORAD_CAT_ID":"51135","RA_OF_ASC_NODE":"167.8591","ECCENTRICITY":"0.00022800","LAUNCH_DATE":"2022-01-19","TIME_SYSTEM":"UTC","BSTAR":"-0.00006072000000","APOAPSIS":"541.329","REV_AT_EPOCH":"2733","CLASSIFICATION_TYPE":"U","TLE_LINE2":"2 51135  53.2178 167.8591 0002280  55.6281 304.4926 15.08838070 27332","ELEMENT_SET_NO":"999","MEAN_MOTION":"15.08838070","REF_FRAME":"TEME","CENTER_NAME":"EARTH","TLE_LINE1":"1 51135U 22005AH  22195.65252163 -.00001255  00000-0 -60720-4 0  9997","EPHEMERIS_TYPE":"0","OBJECT_TYPE":"PAYLOAD","EPOCH":"2022-07-14T15:39:37.868832","OBJECT_ID":"2022-005AH","MEAN_MOTION_DDOT":"0.0000000000000","GP_ID":"208135946","COUNTRY_CODE":"US","RCS_SIZE":"LARGE","INCLINATION":"53.2178","PERIAPSIS":"538.174","OBJECT_NAME":"STARLINK-3363","MEAN_MOTION_DOT":"-0.00001255","SEMIMAJOR_AXIS":"6917.886"},{"DECAY_DATE":null,"MEAN_ANOMALY":"304.8450","NORAD_CAT_ID":"51136","SITE":"AFETR","MEAN_ELEMENT_THEORY":"SGP4","PERIOD":"95.440","FILE":"3513976","ARG_OF_PERICENTER":"55.2729","ECCENTRICITY":"0.00019860","RA_OF_ASC_NODE":"167.8523","BSTAR":"0.00065069000000","TIME_SYSTEM":"UTC","LAUNCH_DATE":"2022-01-19","MEAN_MOTION":"15.08794922","ELEMENT_SET_NO":"999","TLE_LINE2":"2 51136  53.2146 167.8523 0001986  55.2729 304.8450 15.08794922 27331","CLASSIFICATION_TYPE":"U","REV_AT_EPOCH":"2733","APOAPSIS":"541.257","OBJECT_ID":"2022-005AJ","EPOCH":"2022-07-14T15:41:01.264704","OBJECT_TYPE":"PAYLOAD","TLE_LINE1":"1 51136U 22005AJ  22195.65348686  .00010070  00000-0  65069-3 0  9997","CENTER_NAME":"EARTH","EPHEMERIS_TYPE":"0","REF_FRAME":"TEME","RCS_SIZE":"LARGE","COUNTRY_CODE":"US","GP_ID":"208136197","MEAN_MOTION_DDOT":"0.0000000000000","SEMIMAJOR_AXIS":"6918.018","MEAN_MOTION_DOT":"0.00010070","OBJECT_NAME":"STARLINK-3253","PERIAPSIS":"538.509","INCLINATION":"53.2146"},{"OBJECT_ID":"2022-005AK","EPOCH":"2022-07-14T16:59:06.020448","TLE_LINE1":"1 51137U 22005AK  22195.70770857  .00000386  00000-0  42375-4 0  9998","CENTER_NAME":"EARTH","EPHEMERIS_TYPE":"0","OBJECT_TYPE":"PAYLOAD","REF_FRAME":"TEME","TLE_LINE2":"2 51137  53.2173 167.5963 0002736  49.5124 310.6106 15.08837522 27355","CLASSIFICATION_TYPE":"U","ELEMENT_SET_NO":"999","MEAN_MOTION":"15.08837522","REV_AT_EPOCH":"2735","APOAPSIS":"541.646","SEMIMAJOR_AXIS":"6917.888","MEAN_MOTION_DOT":"0.00000386","OBJECT_NAME":"STARLINK-3180","PERIAPSIS":"537.860","INCLINATION":"53.2173","RCS_SIZE":"LARGE","COUNTRY_CODE":"US","GP_ID":"208136947","MEAN_MOTION_DDOT":"0.0000000000000","PERIOD":"95.438","NORAD_CAT_ID":"51137","SITE":"AFETR","MEAN_ELEMENT_THEORY":"SGP4","ARG_OF_PERICENTER":"49.5124","FILE":"3513976","DECAY_DATE":null,"MEAN_ANOMALY":"310.6106","BSTAR":"0.00004237500000","TIME_SYSTEM":"UTC","LAUNCH_DATE":"2022-01-19","RA_OF_ASC_NODE":"167.5963","ECCENTRICITY":"0.00027360"},{"ECCENTRICITY":"0.00021630","RA_OF_ASC_NODE":"167.8561","BSTAR":"0.00005041800000","LAUNCH_DATE":"2022-01-19","TIME_SYSTEM":"UTC","DECAY_DATE":null,"MEAN_ANOMALY":"308.3710","SITE":"AFETR","NORAD_CAT_ID":"51138","MEAN_ELEMENT_THEORY":"SGP4","PERIOD":"95.438","ARG_OF_PERICENTER":"51.7476","FILE":"3513976","GP_ID":"208136693","RCS_SIZE":"LARGE","COUNTRY_CODE":"US","MEAN_MOTION_DDOT":"0.0000000000000","SEMIMAJOR_AXIS":"6917.891","PERIAPSIS":"538.259","OBJECT_NAME":"STARLINK-3177","INCLINATION":"53.2157","MEAN_MOTION_DOT":"0.00000514","REV_AT_EPOCH":"2733","MEAN_MOTION":"15.08836597","ELEMENT_SET_NO":"999","TLE_LINE2":"2 51138  53.2157 167.8561 0002163  51.7476 308.3710 15.08836597 27338","CLASSIFICATION_TYPE":"U","APOAPSIS":"541.252","EPOCH":"2022-07-14T15:34:19.119360","OBJECT_ID":"2022-005AL","REF_FRAME":"TEME","OBJECT_TYPE":"PAYLOAD","TLE_LINE1":"1 51138U 22005AL  22195.64883240  .00000514  00000-0  50418-4 0  9993","EPHEMERIS_TYPE":"0","CENTER_NAME":"EARTH"},{"MEAN_ANOMALY":"316.6015","DECAY_DATE":null,"FILE":"3513976","ARG_OF_PERICENTER":"43.5137","PERIOD":"95.437","NORAD_CAT_ID":"51139","SITE":"AFETR","MEAN_ELEMENT_THEORY":"SGP4","RA_OF_ASC_NODE":"167.9251","ECCENTRICITY":"0.00020260","TIME_SYSTEM":"UTC","LAUNCH_DATE":"2022-01-19","BSTAR":"-0.00025876000000","APOAPSIS":"541.119","TLE_LINE2":"2 51139  53.2184 167.9251 0002026  43.5137 316.6015 15.08849201 27344","CLASSIFICATION_TYPE":"U","MEAN_MOTION":"15.08849201","ELEMENT_SET_NO":"999","REV_AT_EPOCH":"2734","TLE_LINE1":"1 51139U 22005AM  22195.63411222 -.00004405  00000-0 -25876-3 0  9994","CENTER_NAME":"EARTH","EPHEMERIS_TYPE":"0","OBJECT_TYPE":"PAYLOAD","REF_FRAME":"TEME","OBJECT_ID":"2022-005AM","EPOCH":"2022-07-14T15:13:07.295808","MEAN_MOTION_DDOT":"0.0000000000000","RCS_SIZE":"LARGE","COUNTRY_CODE":"US","GP_ID":"208135446","MEAN_MOTION_DOT":"-0.00004405","PERIAPSIS":"538.316","INCLINATION":"53.2184","OBJECT_NAME":"STARLINK-3172","SEMIMAJOR_AXIS":"6917.852"},{"MEAN_ANOMALY":"305.7463","DECAY_DATE":null,"FILE":"3513976","ARG_OF_PERICENTER":"54.3763","SITE":"AFETR","NORAD_CAT_ID":"51140","MEAN_ELEMENT_THEORY":"SGP4","PERIOD":"95.437","ECCENTRICITY":"0.00025140","RA_OF_ASC_NODE":"167.8791","TIME_SYSTEM":"UTC","LAUNCH_DATE":"2022-01-19","BSTAR":"0.00008840800000","APOAPSIS":"541.479","MEAN_MOTION":"15.08841668","ELEMENT_SET_NO":"999","TLE_LINE2":"2 51140  53.2159 167.8791 0002514  54.3763 305.7463 15.08841668 27348","CLASSIFICATION_TYPE":"U","REV_AT_EPOCH":"2734","OBJECT_TYPE":"PAYLOAD","CENTER_NAME":"EARTH","TLE_LINE1":"1 51140U 22005AN  22195.64516960  .00001119  00000-0  88408-4 0  9990","EPHEMERIS_TYPE":"0","REF_FRAME":"TEME","OBJECT_ID":"2022-005AN","EPOCH":"2022-07-14T15:29:02.653440","MEAN_MOTION_DDOT":"0.0000000000000","COUNTRY_CODE":"US","RCS_SIZE":"LARGE","GP_ID":"208135697","MEAN_MOTION_DOT":"0.00001119","PERIAPSIS":"538.001","INCLINATION":"53.2159","OBJECT_NAME":"STARLINK-3175","SEMIMAJOR_AXIS":"6917.875"}];
